{"spkid": "54016914", "covariance": {"epoch": "2459353.5", "labels": ["e", "q", "tp", "node", "peri", "i"], "data": [["2.190430109014226E-12", "-1.881503532850588E-12", "-2.159831947218283E-10", "-3.089142736990597E-11", "1.543023385362436E-11", "1.298722028139591E-11"], ["-1.881503532850588E-12", "1.616147771463817E-12", "1.855238311327524E-10", "2.653409345824659E-11", "-1.32530864197527E-11", "-1.115542017529391E-11"], ["-2.159831947218283E-10", "1.855238311327524E-10", "2.134118063663232E-8", "3.107869191512039E-9", "-1.556038837313441E-9", "-1.2825661778055E-9"], ["-3.089142736990597E-11", "2.653409345824659E-11", "3.107869191512039E-9", "3.506789953932175E-9", "-3.250359420164072E-9", "-5.094907156735038E-10"], ["1.543023385362436E-11", "-1.32530864197527E-11", "-1.556038837313441E-9", "-3.250359420164072E-9", "3.120995138740022E-9", "4.165578473048756E-10"], ["1.298722028139591E-11", "-1.115542017529391E-11", "-1.2825661778055E-9", "-5.094907156735038E-10", "4.165578473048756E-10", "1.186121320345784E-10"]], "elements": [{"label": "e", "name": "e", "sigma": 1.48001017192931e-06, "title": "eccentricity", "value": ".4185875282600651", "units": null}, {"label": "q", "sigma": 1.27127800715021e-06, "name": "q", "units": "au", "value": ".5024759607488747", "title": "perihelion distance"}, {"name": "tp", "sigma": 0.000146086209604577, "title": "time of perihelion passage", "value": "2459359.954736480063", "units": "TDB", "label": "tp"}, {"label": "node", "sigma": 5.92181556106924e-05, "name": "om", "units": "deg", "title": "longitude of the ascending node", "value": "64.42385845891481"}, {"sigma": 5.58658673855515e-05, "name": "w", "units": "deg", "title": "argument of perihelion", "value": "308.9499924666607", "label": "peri"}, {"label": "i", "units": "deg", "value": "1.737049061371116", "title": "inclination", "sigma": 1.08909197056345e-05, "name": "i"}]}, "elements": [{"label": "e", "title": "eccentricity", "value": ".4184440399909256", "units": null, "name": "e", "sigma": "1.4882E-6"}, {"name": "a", "sigma": "5.2265E-8", "title": "semi-major axis", "value": ".8640112889452366", "units": "au", "label": "a"}, {"name": "q", "sigma": "1.2555E-6", "units": "au", "value": ".5024709146012249", "title": "perihelion distance", "label": "q"}, {"name": "i", "sigma": "1.0691E-5", "units": "deg", "title": "inclination; angle with respect to x-y ecliptic plane", "value": "1.738272450105313", "label": "i"}, {"value": "64.44460452054284", "title": "longitude of the ascending node", "units": "deg", "sigma": "6.2383E-5", "name": "om", "label": "node"}, {"name": "w", "sigma": "6.0071E-5", "units": "deg", "title": "argument of perihelion", "value": "308.8640565635167", "label": "peri"}, {"label": "M", "name": "ma", "sigma": ".00011605", "title": "mean anomaly", "value": "97.89086278148719", "units": "deg"}, {"label": "tp", "name": "tp", "sigma": ".00010176", "units": "TDB", "value": "2461120.734111386760", "title": "time of perihelion passage"}, {"units": "d", "title": "sidereal orbital period", "value": "293.3442313698461", "name": "per", "sigma": "2.6617E-5", "label": "period"}, {"title": "mean motion", "value": "1.22722713284283", "units": "deg/d", "sigma": "1.1135E-7", "name": "n", "label": "n"}, {"label": "Q", "sigma": "7.4134E-8", "name": "ad", "value": "1.225551663289248", "title": "aphelion distance", "units": "au"}], "epoch": "2461200.5"}